BIRKELAND               
1 55015U 23001G   26161.25896929  .00008576  00000+0  21716-3 0  9993
2 55015  97.3350 229.2114 0008233 125.0487 235.1533 15.39952824191280
ION SCV-008             
1 55051U 23001AU  26161.16783759  .00005804  00000+0  21141-3 0  9992
2 55051  97.5703 257.3691 0015660  42.3787 317.8659 15.28492775190268
ION SCV-007             
1 55060U 23001BD  26161.15500620  .00000360  00000+0  57477-4 0  9999
2 55060  97.9008 224.3093 0012372   5.3750 354.7591 14.77547135185214
HUYGENS                 
1 55093U 23001CN  26161.25906336  .00008895  00000+0  22487-3 0  9993
2 55093  97.3255 228.4505 0011198 107.2933 252.9539 15.39957570191306
SHARJAHSAT-1            
1 55104U 23001CZ  26161.26491133  .00018524  00000+0  34583-3 0  9991
2 55104  97.3176 229.9361 0007197 123.3092 236.8849 15.48797798191428
HORUS 1                 
1 55690U 23025A   26161.32209025  .00004997  00000+0  21213-3 0  9996
2 55690  97.3465 236.0610 0002201 125.9738 234.1703 15.23530703183000
HORUS 2                 
1 55844U 23032A   26161.29157988  .00005396  00000+0  23001-3 0  9992
2 55844  97.3536 236.8307 0002178 111.5522 248.5947 15.23353312180438
GLOBAL-19               
1 55982U 23041B   26160.95510304  .00013369  00000+0  35714-3 0  9995
2 55982  42.0013 244.0543 0009979 314.5348  45.4675 15.37858800180819
BRO-9                   
1 56185U 23054H   26160.57610912  .00467986  92685-4  10888-2 0  9996
2 56185  97.2949  78.4371 0006577 143.5914 216.5811 15.97039346177870
ION SCV-010             
1 56192U 23054Q   26160.94771880  .00004126  00000+0  16239-3 0  9992
2 56192  97.3794  50.5411 0011507 224.5483 135.4831 15.26134806175095
TELEOS-2                
1 56310U 23057C   26160.82442745  .00000669  00000+0 -16681-5 0  9991
2 56310   9.9881 257.7953 0000983 263.7139  96.2963 14.96399866171691
SNIPE 4                 
1 56744U 23072B   26161.27140384  .00018047  00000+0  42383-3 0  9997
2 56744  97.5265   7.0590 0005074   6.4368 353.6943 15.42073269169048
SNIPE 2                 
1 56745U 23072C   26161.26949997  .00024208  00000+0  48845-3 0  9999
2 56745  97.5257  10.0535 0004935  39.1262 321.0343 15.46513371169178
2023-072G               
1 56749U 23072G   26161.28644983  .00028934  00000+0  51349-3 0  9995
2 56749  97.4922   8.8663 0003624  31.3496 328.7970 15.50180568169391
GEISAT PRECURSOR        
1 56934U 23084C   26161.24192131  .00006604  00000+0  19971-3 0  9998
2 56934  97.6210 301.9676 0005611  23.5531 336.5968 15.34557292166464
BLACKJACK ACES-3        
1 56950U 23084U   26161.11894382  .00004952  00000+0  24414-3 0  9991
2 56950  97.6199 296.2574 0003118  54.3222 305.8302 15.18400683166093
BLACKJACK ACES-2        
1 56955U 23084Z   26161.12540067  .00006666  00000+0  32628-3 0  9995
2 56955  97.6195 296.3483 0001522  68.8871 291.2525 15.18524772166104
BLACKJACK ACES-1        
1 56956U 23084AA  26161.11353658  .00006881  00000+0  33675-3 0  9995
2 56956  97.6186 296.1104 0001257  98.8661 261.2715 15.18515195115828
ION SCV-011             
1 56957U 23084AB  26161.25933790  .00004913  00000+0  17865-3 0  9999
2 56957  98.1383 347.8976 0008358  66.9970 293.2148 15.28778898164756
GHOST-3                 
1 56958U 23084AC  26160.66392923  .00015606  00000+0  30395-3 0  9995
2 56958  97.6202 308.8342 0005740 325.5977  34.4900 15.47634867166850
TOMORROW-R2             
1 56962U 23084AG  26161.18709690  .00407347  75186-4  71086-3 0  9992
2 56962  97.6021 324.4187 0007439 245.7552 114.2950 16.02124152167939
AFR-1                   
1 56964U 23084AJ  26161.29311774  .00004091  00000+0  15018-3 0  9998
2 56964  97.6260 297.8191 0010589  11.5828 348.5653 15.28497395166175
METEOR-M2 3             
1 57166U 23091A   26161.28302703 -.00000010  00000+0  14240-4 0  9997
2 57166  98.6091 216.4023 0003969 173.5385 186.5846 14.24046188153530
UMKA 1 (RS40S)          
1 57172U 23091G   26161.25094798  .00005843  00000+0  26805-3 0  9990
2 57172  97.5056 219.9750 0013930 139.3886 220.8391 15.20737122162951
2023-091H               
1 57173U 23091H   26161.24389568  .00011079  00000+0  40151-3 0  9990
2 57173  97.5054 224.3801 0011113 134.0976 226.1180 15.28484272163241
2023-091J               
1 57174U 23091J   26161.24826970  .00003054  00000+0  17211-3 0  9999
2 57174  97.5060 214.4437 0013728 165.4732 194.6897 15.13877450162584
CUBEBEL 2 (EU11S)       
1 57175U 23091K   26161.24706374  .00012117  00000+0  43220-3 0  9994
2 57175  97.5058 224.4025 0011125 135.7009 224.5123 15.28983229163249
SITRO-AIS 5 (KATYS)     
1 57176U 23091L   26161.26546652  .00011817  00000+0  41732-3 0  9990
2 57176  97.5065 225.0995 0012739 124.8328 235.4112 15.29296272163285
ZORKIY-2M 1             
1 57177U 23091M   26161.30350165  .00006794  00000+0  31035-3 0  9991
2 57177  97.5097 220.2907 0014540 136.7547 223.4832 15.20812966162952
CUBESX-HSE 3 (RS42S)    
1 57178U 23091N   26161.24639604  .00012832  00000+0  42935-3 0  9994
2 57178  97.5097 226.7465 0012159 115.9875 244.2620 15.31039292163367
