OBJECT_NAME,OBJECT_ID,EPOCH,MEAN_MOTION,ECCENTRICITY,INCLINATION,RA_OF_ASC_NODE,ARG_OF_PERICENTER,MEAN_ANOMALY,EPHEMERIS_TYPE,CLASSIFICATION_TYPE,NORAD_CAT_ID,ELEMENT_SET_NO,REV_AT_EPOCH,BSTAR,MEAN_MOTION_DOT,MEAN_MOTION_DDOT
BIRKELAND,2023-001G,2026-06-10T06:12:54.946656,15.39952824,.00082331,97.3350,229.2114,125.0487,235.1533,0,U,55015,999,19128,.21716438E-3,.8576E-4,0
ION SCV-008,2023-001AU,2026-06-10T04:01:41.167776,15.28492775,.00156602,97.5703,257.3691,42.3787,317.8659,0,U,55051,999,19026,.21141009E-3,.5804E-4,0
ION SCV-007,2023-001BD,2026-06-10T03:43:12.535680,14.77547135,.00123722,97.9008,224.3093,5.3750,354.7591,0,U,55060,999,18521,.57477467E-4,.36E-5,0
HUYGENS,2023-001CN,2026-06-10T06:13:03.074304,15.39957570,.00111984,97.3255,228.4505,107.2933,252.9539,0,U,55093,999,19130,.2248748E-3,.8895E-4,0
SHARJAHSAT-1,2023-001CZ,2026-06-10T06:21:28.338912,15.48797798,.00071971,97.3176,229.9361,123.3092,236.8849,0,U,55104,999,19142,.34582844E-3,.18524E-3,0
HORUS 1,2023-025A,2026-06-10T07:43:48.597600,15.23530703,.00022018,97.3465,236.0610,125.9738,234.1703,0,U,55690,999,18300,.21213411E-3,.4997E-4,0
HORUS 2,2023-032A,2026-06-10T06:59:52.501632,15.23353312,.00021788,97.3536,236.8307,111.5522,248.5947,0,U,55844,999,18043,.23000583E-3,.5396E-4,0
GLOBAL-19,2023-041B,2026-06-09T22:55:20.902656,15.37858800,.00099792,42.0013,244.0543,314.5348,45.4675,0,U,55982,999,18081,.35713774E-3,.13369E-3,0
BRO-9,2023-054H,2026-06-09T13:49:35.827968,15.97039346,.00065776,97.2949,78.4371,143.5914,216.5811,0,U,56185,999,17787,.10888484E-2,.467986E-2,.92684865E-4
ION SCV-010,2023-054Q,2026-06-09T22:44:42.904320,15.26134806,.00115078,97.3794,50.5411,224.5483,135.4831,0,U,56192,999,17509,.16239283E-3,.4126E-4,0
TELEOS-2,2023-057C,2026-06-09T19:47:10.531680,14.96399866,.00009836,9.9881,257.7953,263.7139,96.2963,0,U,56310,999,17169,-.1668089E-5,.669E-5,0
SNIPE 4,2023-072B,2026-06-10T06:30:49.291776,15.42073269,.00050743,97.5265,7.0590,6.4368,353.6943,0,U,56744,999,16904,.4238279E-3,.18047E-3,0
SNIPE 2,2023-072C,2026-06-10T06:28:04.797408,15.46513371,.00049354,97.5257,10.0535,39.1262,321.0343,0,U,56745,999,16917,.48845252E-3,.24208E-3,0
2023-072G,2023-072G,2026-06-10T06:52:29.265312,15.50180568,.00036243,97.4922,8.8663,31.3496,328.7970,0,U,56749,999,16939,.51349357E-3,.28934E-3,0
GEISAT PRECURSOR,2023-084C,2026-06-10T05:48:22.001184,15.34557292,.00056114,97.6210,301.9676,23.5531,336.5968,0,U,56934,999,16646,.19971284E-3,.6604E-4,0
BLACKJACK ACES-3,2023-084U,2026-06-10T02:51:16.746048,15.18400683,.0003118,97.6199,296.2574,54.3222,305.8302,0,U,56950,999,16609,.24414456E-3,.4952E-4,0
BLACKJACK ACES-2,2023-084Z,2026-06-10T03:00:34.617888,15.18524772,.00015221,97.6195,296.3483,68.8871,291.2525,0,U,56955,999,16610,.32628499E-3,.6666E-4,0
BLACKJACK ACES-1,2023-084AA,2026-06-10T02:43:29.560512,15.18515195,.00012576,97.6186,296.1104,98.8661,261.2715,0,U,56956,999,11582,.33675138E-3,.6881E-4,0
ION SCV-011,2023-084AB,2026-06-10T06:13:26.794560,15.28778898,.00083587,98.1383,347.8976,66.9970,293.2148,0,U,56957,999,16475,.17865282E-3,.4913E-4,0
GHOST-3,2023-084AC,2026-06-09T15:56:03.485472,15.47634867,.00057405,97.6202,308.8342,325.5977,34.4900,0,U,56958,999,16685,.30394967E-3,.15606E-3,0
TOMORROW-R2,2023-084AG,2026-06-10T04:29:25.172160,16.02124152,.00074394,97.6021,324.4187,245.7552,114.2950,0,U,56962,999,16793,.71086411E-3,.407347E-2,.75185801E-4
AFR-1,2023-084AJ,2026-06-10T07:02:05.372736,15.28497395,.00105894,97.6260,297.8191,11.5828,348.5653,0,U,56964,999,16617,.15017695E-3,.4091E-4,0
METEOR-M2 3,2023-091A,2026-06-10T06:47:33.535392,14.24046188,.00039693,98.6091,216.4023,173.5385,186.5846,0,U,57166,999,15353,.14239692E-4,-.1E-6,0
UMKA 1 (RS40S),2023-091G,2026-06-10T06:01:21.905472,15.20737122,.00139306,97.5056,219.9750,139.3886,220.8391,0,U,57172,999,16295,.26804723E-3,.5843E-4,0
2023-091H,2023-091H,2026-06-10T05:51:12.586752,15.28484272,.00111139,97.5054,224.3801,134.0976,226.1180,0,U,57173,999,16324,.40151413E-3,.11079E-3,0
2023-091J,2023-091J,2026-06-10T05:57:30.502080,15.13877450,.00137287,97.5060,214.4437,165.4732,194.6897,0,U,57174,999,16258,.17211235E-3,.3054E-4,0
CUBEBEL 2 (EU11S),2023-091K,2026-06-10T05:55:46.307136,15.28983229,.00111259,97.5058,224.4025,135.7009,224.5123,0,U,57175,999,16324,.43219677E-3,.12117E-3,0
SITRO-AIS 5 (KATYS),2023-091L,2026-06-10T06:22:16.307328,15.29296272,.00127393,97.5065,225.0995,124.8328,235.4112,0,U,57176,999,16328,.41731974E-3,.11817E-3,0
ZORKIY-2M 1,2023-091M,2026-06-10T07:17:02.542560,15.20812966,.00145409,97.5097,220.2907,136.7547,223.4832,0,U,57177,999,16295,.31034984E-3,.6794E-4,0
CUBESX-HSE 3 (RS42S),2023-091N,2026-06-10T05:54:48.617856,15.31039292,.00121598,97.5097,226.7465,115.9875,244.2620,0,U,57178,999,16336,.42934671E-3,.12832E-3,0
